satname,norad_id,inclination_deg,eccentricity,mean_motion_rev_per_day,perigee_km,apogee_km,l1,l2
STARLINK-1356,45564,53.0544,0.000145,15.06448407,546.0590473987177,548.0673554571322,1 45564U 20025AK  25290.62966630  .00014844  00000+0  10120-2 0  9995,2 45564  53.0544   8.8371 0001450  89.1753 270.9402 15.06448407303804
STARLINK-1357,45565,53.0614,0.0005479,15.29793336,472.6739467740481,480.1851808146539,1 45565U 20025AL  25291.20553238  .00062867  00000+0  21427-2 0  9997,2 45565  53.0614 353.5864 0005479 276.9140  83.1236 15.29793336304079
STARLINK-1361,45567,53.055,0.0001325,15.06415398,546.2467632570306,548.0819681189387,1 45567U 20025AN  25290.91350558  .00007348  00000+0  51143-3 0  9998,2 45567  53.0550   7.5638 0001325  90.5872 269.5269 15.06415398303858
STARLINK-1363,45568,53.0559,0.0001128,15.18696527,509.00203235160734,510.55594619878775,1 45568U 20025AP  25291.33336806  .01751237  00000+0  76093-1 0  9999,2 45568  53.0559   5.6209 0001128  91.9556 101.9156 15.18696527  5756
STARLINK-1366,45569,53.0554,0.0001382,15.21763341,499.57108970946683,501.47235097977045,1 45569U 20025AQ  25291.33336806  .01025468  00000+0  41496-1 0  9999,2 45569  53.0554   5.2328 0001382  79.1425 249.8221 15.21763341  5809
STARLINK-1376,45570,53.0586,0.0001528,15.06390649,546.1820199158992,548.2984151935834,1 45570U 20025AR  25291.24155553  .00001224  00000+0  10105-3 0  9997,2 45570  53.0586   6.0957 0001528  91.8416 268.2748 15.06390649303895
STARLINK-1320,45572,53.0585,0.0009392,15.40079325,439.4658725456202,452.28409665749496,1 45572U 20025AT  25291.29774833  .00035280  00000+0  87344-3 0  9990,2 45572  53.0585 312.4405 0009392 318.7402  41.2891 15.40079325304679
STARLINK-1321,45573,53.0554,0.0001287,15.06398557,546.3246876003832,548.1072734575719,1 45573U 20025AU  25291.16138207 -.00000368  00000+0 -58201-5 0  9999,2 45573  53.0554 356.4527 0001287  89.4695 270.6441 15.06398557303727
STARLINK-1328,45576,53.0531,0.0009298,15.63248961,371.9973062497529,384.56153822854776,1 45576U 20025AX  25291.33336806  .00137871  00000+0  14550-2 0  9990,2 45576  53.0531 337.5552 0009298 343.6734 165.4800 15.63248961  5941
STARLINK-1331,45578,53.0562,0.0001866,15.06404863,545.9043863240149,548.4889208435316,1 45578U 20025AZ  25291.20562161  .00004549  00000+0  32407-3 0  9990,2 45578  53.0562 356.2513 0001866  93.1135 267.0067 15.06404863304046
STARLINK-1333,45580,53.0555,0.0001669,15.06405538,546.0387469763891,548.3504226594005,1 45580U 20025BB  25291.21206805  .00001594  00000+0  12587-3 0  9998,2 45580  53.0555   6.2255 0001669  89.6668 270.4512 15.06405538303893
STARLINK-1335,45581,53.0572,0.0001594,15.06396939,546.1170374227459,548.3248415338512,1 45581U 20025BC  25291.21668159  .00001369  00000+0  11080-3 0  9990,2 45581  53.0572 356.2061 0001594 100.0794 260.0375 15.06396939304034
STARLINK-1337,45582,53.0556,0.0001611,15.06422243,546.0277245153029,548.2590498560539,1 45582U 20025BD  25290.90703542  .00003695  00000+0  26666-3 0  9992,2 45582  53.0556 357.5971 0001611  90.1915 269.9258 15.06422243303984
STARLINK-1347,45586,53.0574,0.0005083,15.28967592,475.4118584986318,482.3827195568565,1 45586U 20025BH  25290.54208405  .00073232  00000+0  25546-2 0  9993,2 45586  53.0574 347.0822 0005083 285.4501  74.5936 15.28967592304095
STARLINK-1360,45588,53.0456,0.0006167,15.72087903,348.77963137512506,357.08173025264114,1 45588U 20025BK  25291.24441793  .00115447  00000+0  85431-3 0  9997,2 45588  53.0456 266.6262 0006167  71.4970 288.6717 15.72087903305293
STARLINK-1364,45589,53.0565,0.0001792,15.06408667,545.9439772574142,548.4260126604086,1 45589U 20025BL  25290.91074324  .00001331  00000+0  10820-3 0  9999,2 45589  53.0565 357.5846 0001792  83.0184 277.1009 15.06408667303980
STARLINK-1365,45590,53.054,0.0002065,15.0639734,545.7896243064515,548.6497966278748,1 45590U 20025BM  25291.25813835  .00001082  00000+0  91530-4 0  9998,2 45590  53.0540  26.0171 0002065  95.6848 264.4376 15.06397340303637
STARLINK-1443,45660,53.0556,0.0001232,15.06402126,546.3518399225586,548.058244201723,1 45660U 20035D   25291.30973727 -.00001237  00000+0 -64143-4 0  9994,2 45660  53.0556 345.7893 0001232  85.8924 274.2206 15.06402126297277
STARLINK-1446,45663,53.0263,0.0001407,15.31994463,468.89884343617723,470.8258704552218,1 45663U 20035G   25291.28415687  .00087501  00000+0  27727-2 0  9991,2 45663  53.0263 311.3057 0001407 245.9619 114.1234 15.31994463297754
STARLINK-1448,45665,53.0575,0.0001446,15.06400857,546.2075263362776,548.2103363796277,1 45665U 20035J   25291.31343167 -.00001131  00000+0 -57024-4 0  9992,2 45665  53.0575 345.7668 0001446  94.4681 265.6473 15.06400857297264
STARLINK-1451,45668,53.0555,0.0001524,15.06406515,546.1361703963848,548.2470105507609,1 45668U 20035M   25291.31716299  .00006793  00000+0  47438-3 0  9999,2 45668  53.0555 346.0712 0001524  89.8151 270.3013 15.06406515297277
STARLINK-1452,45669,53.0386,0.0008834,15.24967292,484.8155585027298,496.95174418952865,1 45669U 20035N   25291.26197634  .00077720  00000+0  30554-2 0  9998,2 45669  53.0386 329.0932 0008834 326.5896  33.4542 15.24967292297508
STARLINK-1453,45670,53.0538,0.0001408,15.06402752,546.228035578094,548.1782113568634,1 45670U 20035P   25291.32724902  .00001081  00000+0  91425-4 0  9994,2 45670  53.0538 315.7124 0001408  93.2956 266.8195 15.06402752297588
STARLINK-1454,45671,53.0547,0.0002076,15.06412814,545.7345909446249,548.6099793598205,1 45671U 20035Q   25291.14018417  .00002156  00000+0  16356-3 0  9995,2 45671  53.0547 346.5489 0002076  89.0750 271.0476 15.06412814297234
STARLINK-1456,45673,53.0552,0.0001878,15.06413738,545.8688807149756,548.4700258188223,1 45673U 20035S   25291.15493220  .00002639  00000+0  19597-3 0  9993,2 45673  53.0552 346.4858 0001878  88.6427 271.4777 15.06413738297252
STARLINK-1457,45674,53.0563,0.0001624,15.06409339,546.0582634387047,548.3076073537213,1 45674U 20035T   25291.29500112  .00004089  00000+0  29316-3 0  9999,2 45674  53.0563 345.8520 0001624 110.4755 249.6409 15.06409339297241
STARLINK-1458,45675,53.0561,0.0001004,15.06391474,546.542381404779,547.9329966423356,1 45675U 20035U   25291.15124854 -.00002991  00000+0 -18206-3 0  9998,2 45675  53.0561 346.4973 0001004 100.2401 259.8702 15.06391474297212
STARLINK-1460,45676,53.0554,0.0001425,15.06398143,546.2303864011301,548.204112362203,1 45676U 20035V   25291.32078501 -.00004740  00000+0 -29955-3 0  9992,2 45676  53.0554 345.7372 0001425 100.1505 259.9645 15.06398143297230
STARLINK-1392,45677,53.0569,0.0001473,15.06426389,546.1105887053009,548.1507725640167,1 45677U 20035W   25291.13279990  .00005328  00000+0  37605-3 0  9999,2 45677  53.0569 346.5885 0001473  94.8368 265.2789 15.06426389297248
STARLINK-1394,45679,53.0544,0.0001694,15.06413721,545.9963584466495,548.3426522906693,1 45679U 20035Y   25291.13005297  .00003551  00000+0  25706-3 0  9993,2 45679  53.0544 336.5941 0001694  89.5188 270.5995 15.06413721297380
STARLINK-1402,45685,53.0547,6.9e-05,15.15059329,520.3224216008393,521.2744746926837,1 45685U 20035AE  25291.33336806  .01021423  00000+0  50109-1 0  9997,2 45685  53.0547 329.8997 0000690  83.3406 239.1733 15.15059329  5801
STARLINK-1404,45686,53.0572,0.0001771,15.0639723,545.9935668692033,548.4465283354639,1 45686U 20035AF  25291.28854600 -.00001480  00000+0 -80470-4 0  9998,2 45686  53.0572 335.8887 0001771 107.3597 252.7586 15.06397230297417
STARLINK-1413,45689,53.0556,0.0001973,15.06401525,545.8405136885403,548.57325438518,1 45689U 20035AJ  25291.30697799 -.00000726  00000+0 -29832-4 0  9995,2 45689  53.0556 335.7964 0001973  79.4745 280.6466 15.06401525297325
STARLINK-1417,45693,53.0565,0.0001553,15.06399946,546.1362167837551,548.2872300972558,1 45693U 20035AN  25291.30330067  .00001503  00000+0  11977-3 0  9994,2 45693  53.0565 335.8216 0001553  96.9675 263.1491 15.06399946297407
STARLINK-1420,45695,53.0552,0.0001521,15.06397821,546.1648897360574,548.2715827989305,1 45695U 20035AQ  25291.30419545  .00001132  00000+0  94900-4 0  9991,2 45695  53.0552 315.8017 0001521  97.5432 262.5730 15.06397821297695
STARLINK-1422,45696,53.0558,0.0001515,15.06404405,546.1488690194356,548.2472455417919,1 45696U 20035AR  25291.31435710  .00001478  00000+0  11808-3 0  9993,2 45696  53.0558 335.7703 0001515  87.6554 272.4608 15.06404405297403
STARLINK-1351,45697,53.0556,0.0001333,15.06404358,546.275054145809,548.1213485104818,1 45697U 20035AS  25291.29039047 -.00001111  00000+0 -55674-4 0  9990,2 45697  53.0556 315.8762 0001333  82.1919 277.9222 15.06404358297699
STARLINK-1398,45699,53.0509,0.0002126,15.47437816,422.7782557324326,425.67061981577444,1 45699U 20035AU  25291.33336806  .00165137  00000+0  31111-2 0  9995,2 45699  53.0509 279.3586 0002126  22.8527 214.7687 15.47437816  5910
STARLINK-1400,45700,53.0538,0.0001547,15.06400596,546.1383801453894,548.2810824240487,1 45700U 20035AV  25291.33093764  .00000264  00000+0  36631-4 0  9994,2 45700  53.0538 315.6949 0001547  87.4878 272.6288 15.06400596297692
STARLINK-1403,45701,53.0555,0.0001998,15.06405739,545.8102876581233,548.5776499132508,1 45701U 20035AW  25291.29407911 -.00002063  00000+0 -11959-3 0  9999,2 45701  53.0555 315.8603 0001998  83.2048 276.9168 15.06405739297681
STARLINK-1407,45703,53.0415,0.0010773,15.38493145,443.2079707389985,457.92109105747113,1 45703U 20035AY  25291.24837450  .00132308  00000+0  33772-2 0  9991,2 45703  53.0415 277.8324 0010773   0.1918 359.9087 15.38493145298226
STARLINK-1411,45706,53.0541,0.0001599,15.36985148,453.9377836995782,456.12303063639047,1 45706U 20035BB  25291.33336806  .00129396  00000+0  34755-2 0  9998,2 45706  53.0541 304.4457 0001599  63.2611  51.9009 15.36985148  5865
STARLINK-1423,45710,53.0553,0.0001291,15.06402868,546.3087065812488,548.0968293093329,1 45710U 20035BF  25291.25354198  .00003642  00000+0  26324-3 0  9997,2 45710  53.0553 316.0448 0001291  92.0108 268.1029 15.06402868297689
